start=new Date('2022-10-04T00:00:00.000Z').valueOf();
sats=[{"INCLINATION":"53.0554","CENTER_NAME":"EARTH","MEAN_MOTION_DDOT":"0.0000000000000","MEAN_ANOMALY":"296.0154","LAUNCH_DATE":"2021-04-07","ECCENTRICITY":"0.00016030","MEAN_MOTION_DOT":"0.00006099","COUNTRY_CODE":"US","CLASSIFICATION_TYPE":"U","ARG_OF_PERICENTER":"64.1000","BSTAR":"0.00042786000000","SITE":"AFETR","PERIOD":"95.591","TLE_LINE1":"1 48112U 21027W   22276.79245185  .00006099  00000-0  42786-3 0  9992","MEAN_ELEMENT_THEORY":"SGP4","OBJECT_TYPE":"PAYLOAD","EPHEMERIS_TYPE":"0","DECAY_DATE":null,"OBJECT_ID":"2021-027W","TLE_LINE2":"2 48112  53.0554  41.2596 0001603  64.1000 296.0154 15.06410214 83505","NORAD_CAT_ID":"48112","EPOCH":"2022-10-03T19:01:07.839840","RCS_SIZE":"LARGE","GP_ID":"214118623","OBJECT_NAME":"STARLINK-2449","MEAN_MOTION":"15.06410214","TIME_SYSTEM":"UTC","SEMIMAJOR_AXIS":"6925.317","PERIAPSIS":"546.072","REF_FRAME":"TEME","APOAPSIS":"548.292","RA_OF_ASC_NODE":"41.2596","FILE":"3590585","ELEMENT_SET_NO":"999","REV_AT_EPOCH":"8350"},{"COUNTRY_CODE":"US","ECCENTRICITY":"0.00013760","LAUNCH_DATE":"2021-04-07","MEAN_MOTION_DOT":"-0.00000871","CLASSIFICATION_TYPE":"U","BSTAR":"-0.00003958500000","ARG_OF_PERICENTER":"82.5424","INCLINATION":"53.0565","CENTER_NAME":"EARTH","MEAN_ANOMALY":"277.5721","MEAN_MOTION_DDOT":"0.0000000000000","MEAN_MOTION":"15.06402457","OBJECT_NAME":"STARLINK-2450","GP_ID":"214086114","RCS_SIZE":"LARGE","PERIAPSIS":"546.253","SEMIMAJOR_AXIS":"6925.341","TIME_SYSTEM":"UTC","REF_FRAME":"TEME","REV_AT_EPOCH":"8350","ELEMENT_SET_NO":"999","FILE":"3590320","RA_OF_ASC_NODE":"37.8766","APOAPSIS":"548.159","TLE_LINE1":"1 48113U 21027X   22276.39667237 -.00000871  00000-0 -39585-4 0  9993","PERIOD":"95.592","SITE":"AFETR","EPHEMERIS_TYPE":"0","OBJECT_TYPE":"PAYLOAD","MEAN_ELEMENT_THEORY":"SGP4","OBJECT_ID":"2021-027X","DECAY_DATE":null,"EPOCH":"2022-10-03T09:31:12.492768","NORAD_CAT_ID":"48113","TLE_LINE2":"2 48113  53.0565  37.8766 0001376  82.5424 277.5721 15.06402457 83503"},{"TLE_LINE2":"2 48114  53.0544  30.9584 0001337  79.3470 280.7670 15.06417104 83655","NORAD_CAT_ID":"48114","EPOCH":"2022-10-03T19:43:31.807488","DECAY_DATE":null,"OBJECT_ID":"2021-027Y","MEAN_ELEMENT_THEORY":"SGP4","OBJECT_TYPE":"PAYLOAD","EPHEMERIS_TYPE":"0","PERIOD":"95.591","SITE":"AFETR","TLE_LINE1":"1 48114U 21027Y   22276.82189592  .00011126  00000-0  76427-3 0  9993","FILE":"3590585","APOAPSIS":"548.087","RA_OF_ASC_NODE":"30.9584","REV_AT_EPOCH":"8365","ELEMENT_SET_NO":"999","REF_FRAME":"TEME","TIME_SYSTEM":"UTC","PERIAPSIS":"546.235","SEMIMAJOR_AXIS":"6925.296","OBJECT_NAME":"STARLINK-2451","GP_ID":"214117622","RCS_SIZE":"LARGE","MEAN_MOTION":"15.06417104","MEAN_MOTION_DDOT":"0.0000000000000","MEAN_ANOMALY":"280.7670","CENTER_NAME":"EARTH","INCLINATION":"53.0544","ARG_OF_PERICENTER":"79.3470","BSTAR":"0.00076427000000","CLASSIFICATION_TYPE":"U","ECCENTRICITY":"0.00013370","LAUNCH_DATE":"2021-04-07","MEAN_MOTION_DOT":"0.00011126","COUNTRY_CODE":"US"},{"EPHEMERIS_TYPE":"0","MEAN_ELEMENT_THEORY":"SGP4","OBJECT_TYPE":"PAYLOAD","TLE_LINE1":"1 48115U 21027Z   22276.58462053  .00027840  00000-0  18787-2 0  9997","PERIOD":"95.590","SITE":"AFETR","NORAD_CAT_ID":"48115","EPOCH":"2022-10-03T14:01:51.213792","TLE_LINE2":"2 48115  53.0548  27.0321 0001667  66.0257 294.0907 15.06436063 83687","OBJECT_ID":"2021-027Z","DECAY_DATE":null,"PERIAPSIS":"545.949","SEMIMAJOR_AXIS":"6925.238","TIME_SYSTEM":"UTC","MEAN_MOTION":"15.06436063","GP_ID":"214087614","OBJECT_NAME":"STARLINK-2452","RCS_SIZE":"LARGE","REV_AT_EPOCH":"8368","ELEMENT_SET_NO":"999","FILE":"3590320","RA_OF_ASC_NODE":"27.0321","APOAPSIS":"548.257","REF_FRAME":"TEME","CENTER_NAME":"EARTH","INCLINATION":"53.0548","MEAN_ANOMALY":"294.0907","MEAN_MOTION_DDOT":"0.0000000000000","COUNTRY_CODE":"US","ECCENTRICITY":"0.00016670","LAUNCH_DATE":"2021-04-07","MEAN_MOTION_DOT":"0.00027840","BSTAR":"0.00187870000000","ARG_OF_PERICENTER":"66.0257","CLASSIFICATION_TYPE":"U"},{"REV_AT_EPOCH":"8356","ELEMENT_SET_NO":"999","FILE":"3590585","RA_OF_ASC_NODE":"36.3881","APOAPSIS":"548.207","REF_FRAME":"TEME","PERIAPSIS":"546.136","SEMIMAJOR_AXIS":"6925.307","TIME_SYSTEM":"UTC","MEAN_MOTION":"15.06413710","OBJECT_NAME":"STARLINK-2454","GP_ID":"214118124","RCS_SIZE":"LARGE","NORAD_CAT_ID":"48116","EPOCH":"2022-10-03T17:23:33.749088","TLE_LINE2":"2 48116  53.0566  36.3881 0001495  68.6589 291.4559 15.06413710 83562","OBJECT_ID":"2021-027AA","DECAY_DATE":null,"EPHEMERIS_TYPE":"0","MEAN_ELEMENT_THEORY":"SGP4","OBJECT_TYPE":"PAYLOAD","TLE_LINE1":"1 48116U 21027AA  22276.72469617  .00002581  00000-0  19203-3 0  9997","PERIOD":"95.591","SITE":"AFETR","BSTAR":"0.00019203000000","ARG_OF_PERICENTER":"68.6589","CLASSIFICATION_TYPE":"U","COUNTRY_CODE":"US","LAUNCH_DATE":"2021-04-07","MEAN_MOTION_DOT":"0.00002581","ECCENTRICITY":"0.00014950","MEAN_ANOMALY":"291.4559","MEAN_MOTION_DDOT":"0.0000000000000","CENTER_NAME":"EARTH","INCLINATION":"53.0566"},{"MEAN_MOTION":"15.06422334","RCS_SIZE":"LARGE","GP_ID":"214092753","OBJECT_NAME":"STARLINK-2455","SEMIMAJOR_AXIS":"6925.280","PERIAPSIS":"546.118","TIME_SYSTEM":"UTC","REF_FRAME":"TEME","ELEMENT_SET_NO":"999","REV_AT_EPOCH":"8345","APOAPSIS":"548.172","RA_OF_ASC_NODE":"16.2285","FILE":"3590414","TLE_LINE1":"1 48117U 21027AB  22276.76246142  .00013569  00000-0  92753-3 0  9997","SITE":"AFETR","PERIOD":"95.591","EPHEMERIS_TYPE":"0","OBJECT_TYPE":"PAYLOAD","MEAN_ELEMENT_THEORY":"SGP4","OBJECT_ID":"2021-027AB","DECAY_DATE":null,"NORAD_CAT_ID":"48117","EPOCH":"2022-10-03T18:17:56.666688","TLE_LINE2":"2 48117  53.0552  16.2285 0001483  70.3590 289.7559 15.06422334 83452","COUNTRY_CODE":"US","ECCENTRICITY":"0.00014830","LAUNCH_DATE":"2021-04-07","MEAN_MOTION_DOT":"0.00013569","CLASSIFICATION_TYPE":"U","BSTAR":"0.00092753000000","ARG_OF_PERICENTER":"70.3590","INCLINATION":"53.0552","CENTER_NAME":"EARTH","MEAN_ANOMALY":"289.7559","MEAN_MOTION_DDOT":"0.0000000000000"},{"ARG_OF_PERICENTER":"62.4888","BSTAR":"0.00060221000000","CLASSIFICATION_TYPE":"U","LAUNCH_DATE":"2021-04-07","MEAN_MOTION_DOT":"0.00008704","ECCENTRICITY":"0.00014550","COUNTRY_CODE":"US","MEAN_MOTION_DDOT":"0.0000000000000","MEAN_ANOMALY":"297.6248","CENTER_NAME":"EARTH","INCLINATION":"53.0554","FILE":"3590585","RA_OF_ASC_NODE":"16.1806","APOAPSIS":"548.165","REV_AT_EPOCH":"8385","ELEMENT_SET_NO":"999","REF_FRAME":"TEME","TIME_SYSTEM":"UTC","PERIAPSIS":"546.150","SEMIMAJOR_AXIS":"6925.292","OBJECT_NAME":"STARLINK-2458","GP_ID":"214117123","RCS_SIZE":"LARGE","MEAN_MOTION":"15.06418300","TLE_LINE2":"2 48118  53.0554  16.1806 0001455  62.4888 297.6248 15.06418300 83859","NORAD_CAT_ID":"48118","EPOCH":"2022-10-03T18:35:13.137504","DECAY_DATE":null,"OBJECT_ID":"2021-027AC","OBJECT_TYPE":"PAYLOAD","MEAN_ELEMENT_THEORY":"SGP4","EPHEMERIS_TYPE":"0","PERIOD":"95.591","SITE":"AFETR","TLE_LINE1":"1 48118U 21027AC  22276.77445761  .00008704  00000-0  60221-3 0  9997"},{"NORAD_CAT_ID":"48119","EPOCH":"2022-10-03T18:28:33.317184","TLE_LINE2":"2 48119  53.0551  16.1981 0001683  55.3947 304.7200 15.06424889 83454","OBJECT_ID":"2021-027AD","DECAY_DATE":null,"EPHEMERIS_TYPE":"0","MEAN_ELEMENT_THEORY":"SGP4","OBJECT_TYPE":"PAYLOAD","TLE_LINE1":"1 48119U 21027AD  22276.76983006  .00020624  00000-0  13985-2 0  9995","SITE":"AFETR","PERIOD":"95.591","ELEMENT_SET_NO":"999","REV_AT_EPOCH":"8345","RA_OF_ASC_NODE":"16.1981","APOAPSIS":"548.303","FILE":"3590420","REF_FRAME":"TEME","SEMIMAJOR_AXIS":"6925.272","PERIAPSIS":"545.972","TIME_SYSTEM":"UTC","MEAN_MOTION":"15.06424889","RCS_SIZE":"LARGE","GP_ID":"214092832","OBJECT_NAME":"STARLINK-2459","MEAN_ANOMALY":"304.7200","MEAN_MOTION_DDOT":"0.0000000000000","CENTER_NAME":"EARTH","INCLINATION":"53.0551","BSTAR":"0.00139850000000","ARG_OF_PERICENTER":"55.3947","CLASSIFICATION_TYPE":"U","COUNTRY_CODE":"US","LAUNCH_DATE":"2021-04-07","ECCENTRICITY":"0.00016830","MEAN_MOTION_DOT":"0.00020624"},{"EPOCH":"2022-10-03T15:26:48.658272","NORAD_CAT_ID":"48120","TLE_LINE2":"2 48120  53.0560  36.7697 0001434  71.4064 288.7081 15.06405941 83569","OBJECT_ID":"2021-027AE","DECAY_DATE":null,"EPHEMERIS_TYPE":"0","MEAN_ELEMENT_THEORY":"SGP4","OBJECT_TYPE":"PAYLOAD","TLE_LINE1":"1 48120U 21027AE  22276.64361873  .00005084  00000-0  35992-3 0  9992","PERIOD":"95.592","SITE":"AFETR","REV_AT_EPOCH":"8356","ELEMENT_SET_NO":"999","FILE":"3590585","APOAPSIS":"548.188","RA_OF_ASC_NODE":"36.7697","REF_FRAME":"TEME","PERIAPSIS":"546.202","SEMIMAJOR_AXIS":"6925.330","TIME_SYSTEM":"UTC","MEAN_MOTION":"15.06405941","GP_ID":"214118624","OBJECT_NAME":"STARLINK-2460","RCS_SIZE":"LARGE","MEAN_ANOMALY":"288.7081","MEAN_MOTION_DDOT":"0.0000000000000","CENTER_NAME":"EARTH","INCLINATION":"53.0560","BSTAR":"0.00035992000000","ARG_OF_PERICENTER":"71.4064","CLASSIFICATION_TYPE":"U","COUNTRY_CODE":"US","LAUNCH_DATE":"2021-04-07","ECCENTRICITY":"0.00014340","MEAN_MOTION_DOT":"0.00005084"},{"CLASSIFICATION_TYPE":"U","ARG_OF_PERICENTER":"81.4234","BSTAR":"0.00020161000000","MEAN_MOTION_DOT":"0.00002724","LAUNCH_DATE":"2021-04-07","ECCENTRICITY":"0.00012820","COUNTRY_CODE":"US","MEAN_MOTION_DDOT":"0.0000000000000","MEAN_ANOMALY":"278.6901","INCLINATION":"53.0569","CENTER_NAME":"EARTH","REF_FRAME":"TEME","RA_OF_ASC_NODE":"26.8922","APOAPSIS":"548.049","FILE":"3590585","ELEMENT_SET_NO":"999","REV_AT_EPOCH":"8368","RCS_SIZE":"LARGE","OBJECT_NAME":"STARLINK-2462","GP_ID":"214118868","MEAN_MOTION":"15.06416936","TIME_SYSTEM":"UTC","SEMIMAJOR_AXIS":"6925.297","PERIAPSIS":"546.274","DECAY_DATE":null,"OBJECT_ID":"2021-027AF","TLE_LINE2":"2 48121  53.0569  26.8922 0001282  81.4234 278.6901 15.06416936 83689","NORAD_CAT_ID":"48121","EPOCH":"2022-10-03T14:45:38.985120","SITE":"AFETR","PERIOD":"95.591","TLE_LINE1":"1 48121U 21027AF  22276.61503455  .00002724  00000-0  20161-3 0  9994","OBJECT_TYPE":"PAYLOAD","MEAN_ELEMENT_THEORY":"SGP4","EPHEMERIS_TYPE":"0"}];
